ION SCV-010             
1 56192U 23054Q   26192.15502278  .00002927  00000+0  11500-3 0  9996
2 56192  97.3756  81.3502 0014442 116.8050 243.4667 15.26401579179859
TELEOS-2                
1 56310U 23057C   26192.01723856  .00003348  00000+0  22835-3 0  9994
2 56310   9.9891  30.6632 0000872 264.2619  95.7495 14.96405469176371
SNIPE 4                 
1 56744U 23072B   26192.14699288  .00014151  00000+0  31982-3 0  9994
2 56744  97.5238  38.9261 0004423 222.3039 137.7867 15.43283121173803
SNIPE 2                 
1 56745U 23072C   26192.18248212  .00017517  00000+0  33578-3 0  9998
2 56745  97.5225  42.1783 0002929 253.7035 106.3893 15.48078523173959
2023-072G               
1 56749U 23072G   26192.18873366  .00019633  00000+0  32808-3 0  9992
2 56749  97.4881  41.0168 0002031 221.0402 139.0698 15.51963365174188
GEISAT PRECURSOR        
1 56934U 23084C   26192.14599666  .00004521  00000+0  13577-3 0  9997
2 56934  97.6243 333.8969 0004212 248.5186 111.5608 15.34972931171201
BLACKJACK ACES-3        
1 56950U 23084U   26192.08914554  .00002769  00000+0  13686-3 0  9998
2 56950  97.6233 327.4684 0000717 283.6885  76.4268 15.18700537170790
BLACKJACK ACES-2        
1 56955U 23084Z   26191.89744751  .00003811  00000+0  18711-3 0  9994
2 56955  97.6228 327.3592 0001332 141.3195 218.8134 15.18702100170774
BLACKJACK ACES-1        
1 56956U 23084AA  26191.42388621  .00004373  00000+0  21392-3 0  9997
2 56956  97.6220 326.6538 0001719 123.6672 236.4726 15.18745939120428
ION SCV-011             
1 56957U 23084AB  26191.95385235  .00003115  00000+0  11347-3 0  9996
2 56957  98.1382  21.4396 0006191 322.9826  37.0984 15.29070069169443
GHOST-3                 
1 56958U 23084AC  26191.36586820  .00013744  00000+0  25847-3 0  9994
2 56958  97.6229 341.1977 0006500 200.9476 159.1508 15.48672052171605
AFR-1                   
1 56964U 23084AJ  26192.19028127  .00002761  00000+0  10156-3 0  9998
2 56964  97.6298 329.4660 0009072 251.1594 108.8662 15.28754492170891
METEOR-M2 3             
1 57166U 23091A   26192.19842094 -.00000017  00000+0  11416-4 0  9992
2 57166  98.6070 246.6839 0005151  99.2560 260.9202 14.24048731157938
UMKA 1 (RS40S)          
1 57172U 23091G   26192.17309513  .00003870  00000+0  17684-3 0  9992
2 57172  97.5042 250.7800 0013426  42.7737 317.4541 15.21093215167658
2023-091H               
1 57173U 23091H   26192.20261686  .00007050  00000+0  25150-3 0  9996
2 57173  97.5042 255.5953 0010002  38.5466 321.6486 15.29160641167976
2023-091J               
1 57174U 23091J   26192.17966431  .00002204  00000+0  12444-3 0  9991
2 57174  97.5045 244.9343 0014635  68.8432 291.4362 15.14094440167266
CUBEBEL 2 (EU11S)       
1 57175U 23091K   26192.19472780  .00008330  00000+0  29121-3 0  9999
2 57175  97.5044 255.6336 0009977  39.8851 320.3120 15.29761083167975
SITRO-AIS 5 (KATYS)     
1 57176U 23091L   26192.20739059  .00007630  00000+0  26488-3 0  9992
2 57176  97.5054 256.3420 0011102  26.3693 333.8110 15.30007285168010
ZORKIY-2M 1             
1 57177U 23091M   26192.15784156  .00004241  00000+0  19278-3 0  9999
2 57177  97.5082 251.0495 0013800  39.7075 320.5168 15.21217056167648
CUBESX-HSE 3 (RS42S)    
1 57178U 23091N   26192.15243992  .00008081  00000+0  26522-3 0  9994
2 57178  97.5085 258.0501 0010098  16.4834 343.6733 15.31820246168094
MONITOR-3 (RS58S)       
1 57180U 23091Q   26192.16525485  .00006189  00000+0  22676-3 0  9991
2 57180  97.5077 255.7928 0011450  23.6499 336.5264 15.28322976167952
MONITOR-4 (RS57S)       
1 57182U 23091S   26192.20844759  .00006257  00000+0  22859-3 0  9995
2 57182  97.5071 255.8088 0011446  23.9088 336.2681 15.28409508167966
MONITOR-2 (RS39S)       
1 57184U 23091U   26192.15899500  .00003104  00000+0  15086-3 0  9997
2 57184  97.5062 250.2881 0011794  37.1786 323.0262 15.19131725167597
SVYATOBOR 1 (RS60S)     
1 57187U 23091X   26192.11170051  .00005531  00000+0  21123-3 0  9994
2 57187  97.5082 256.0653 0009163  18.8837 341.2740 15.27020196167965
HORS 1                  
1 57188U 23091Y   26192.16102002  .00005613  00000+0  21359-3 0  9993
2 57188  97.5060 255.8743 0008629  18.9889 341.1670 15.27137879167972
VIZARD-METEO (RS38S)    
1 57189U 23091Z   26192.18022175  .00010324  00000+0  28926-3 0  9990
2 57189  97.5086 262.1570 0006022 356.1622   3.9575 15.36792411168378
SITRO-AIS 6 (CHIRKIN)   
1 57192U 23091AC  26192.17690212  .00006360  00000+0  24691-3 0  9996
2 57192  97.5061 255.3014 0011593  30.3675 329.8232 15.26390562167942
SITRO-AIS 8 (ANOKHIN)   
1 57193U 23091AD  26192.18165725  .00008876  00000+0  28238-3 0  9999
2 57193  97.5049 258.0043 0009948  22.4691 337.6984 15.32788770168123
SITRO-AIS 7 (FARTUSHNIY)
1 57194U 23091AE  26192.18504056  .00006253  00000+0  24516-3 0  9996
2 57194  97.5057 255.1219 0011556  31.4473 328.7454 15.26066449167938
AVION KALUGA 650        
1 57195U 23091AF  26192.18308631  .00003566  00000+0  16567-3 0  9999
2 57195  97.5081 251.6640 0010849  35.7484 324.4475 15.20606208167672
