OBJECT_NAME,OBJECT_ID,EPOCH,MEAN_MOTION,ECCENTRICITY,INCLINATION,RA_OF_ASC_NODE,ARG_OF_PERICENTER,MEAN_ANOMALY,EPHEMERIS_TYPE,CLASSIFICATION_TYPE,NORAD_CAT_ID,ELEMENT_SET_NO,REV_AT_EPOCH,BSTAR,MEAN_MOTION_DOT,MEAN_MOTION_DDOT
ION SCV-010,2023-054Q,2026-07-11T03:43:13.968192,15.26401579,.0014442,97.3756,81.3502,116.8050,243.4667,0,U,56192,999,17985,.115E-3,.2927E-4,0
TELEOS-2,2023-057C,2026-07-11T00:24:49.411584,14.96405469,.0000872,9.9891,30.6632,264.2619,95.7495,0,U,56310,999,17637,.22835E-3,.3348E-4,0
SNIPE 4,2023-072B,2026-07-11T03:31:40.184832,15.43283121,.0004423,97.5238,38.9261,222.3039,137.7867,0,U,56744,999,17380,.31982E-3,.14151E-3,0
SNIPE 2,2023-072C,2026-07-11T04:22:46.455168,15.48078523,.0002929,97.5225,42.1783,253.7035,106.3893,0,U,56745,999,17395,.33578E-3,.17517E-3,0
2023-072G,2023-072G,2026-07-11T04:31:46.588224,15.51963365,.0002031,97.4881,41.0168,221.0402,139.0698,0,U,56749,999,17418,.32808E-3,.19633E-3,0
GEISAT PRECURSOR,2023-084C,2026-07-11T03:30:14.111424,15.34972931,.0004212,97.6243,333.8969,248.5186,111.5608,0,U,56934,999,17120,.13577E-3,.4521E-4,0
BLACKJACK ACES-3,2023-084U,2026-07-11T02:08:22.174656,15.18700537,.0000717,97.6233,327.4684,283.6885,76.4268,0,U,56950,999,17079,.13686E-3,.2769E-4,0
BLACKJACK ACES-2,2023-084Z,2026-07-10T21:32:19.464864,15.18702100,.0001332,97.6228,327.3592,141.3195,218.8134,0,U,56955,999,17077,.18711E-3,.3811E-4,0
BLACKJACK ACES-1,2023-084AA,2026-07-10T10:10:23.768544,15.18745939,.00017196,97.6220,326.6538,123.6672,236.4726,0,U,56956,999,12042,.21391537E-3,.4373E-4,0
ION SCV-011,2023-084AB,2026-07-10T22:53:32.843040,15.29070069,.0006191,98.1382,21.4396,322.9826,37.0984,0,U,56957,999,16944,.11347E-3,.3115E-4,0
GHOST-3,2023-084AC,2026-07-10T08:46:51.012480,15.48672052,.00065003,97.6229,341.1977,200.9476,159.1508,0,U,56958,999,17160,.25847496E-3,.13744E-3,0
AFR-1,2023-084AJ,2026-07-11T04:34:00.301728,15.28754492,.0009072,97.6298,329.4660,251.1594,108.8662,0,U,56964,999,17089,.10156E-3,.2761E-4,0
METEOR-M2 3,2023-091A,2026-07-11T04:45:43.569216,14.24048731,.0005151,98.6070,246.6839,99.2560,260.9202,0,U,57166,999,15793,.11416E-4,-.17E-6,0
UMKA 1 (RS40S),2023-091G,2026-07-11T04:09:15.419232,15.21093215,.0013426,97.5042,250.7800,42.7737,317.4541,0,U,57172,999,16765,.17684E-3,.387E-4,0
2023-091H,2023-091H,2026-07-11T04:51:46.096704,15.29160641,.0010002,97.5042,255.5953,38.5466,321.6486,0,U,57173,999,16797,.2515E-3,.705E-4,0
2023-091J,2023-091J,2026-07-11T04:18:42.996384,15.14094440,.0014635,97.5045,244.9343,68.8432,291.4362,0,U,57174,999,16726,.12444E-3,.2204E-4,0
CUBEBEL 2 (EU11S),2023-091K,2026-07-11T04:40:24.481920,15.29761083,.0009977,97.5044,255.6336,39.8851,320.3120,0,U,57175,999,16797,.29121E-3,.833E-4,0
SITRO-AIS 5 (KATYS),2023-091L,2026-07-11T04:58:38.546976,15.30007285,.0011102,97.5054,256.3420,26.3693,333.8110,0,U,57176,999,16801,.26488E-3,.763E-4,0
ZORKIY-2M 1,2023-091M,2026-07-11T03:47:17.510784,15.21217056,.00138,97.5082,251.0495,39.7075,320.5168,0,U,57177,999,16764,.19278E-3,.4241E-4,0
CUBESX-HSE 3 (RS42S),2023-091N,2026-07-11T03:39:30.809088,15.31820246,.0010098,97.5085,258.0501,16.4834,343.6733,0,U,57178,999,16809,.26522E-3,.8081E-4,0
MONITOR-3 (RS58S),2023-091Q,2026-07-11T03:57:58.019040,15.28322976,.001145,97.5077,255.7928,23.6499,336.5264,0,U,57180,999,16795,.22676E-3,.6189E-4,0
MONITOR-4 (RS57S),2023-091S,2026-07-11T05:00:09.871776,15.28409508,.0011446,97.5071,255.8088,23.9088,336.2681,0,U,57182,999,16796,.22859E-3,.6257E-4,0
MONITOR-2 (RS39S),2023-091U,2026-07-11T03:48:57.168000,15.19131725,.0011794,97.5062,250.2881,37.1786,323.0262,0,U,57184,999,16759,.15086E-3,.3104E-4,0
SVYATOBOR 1 (RS60S),2023-091X,2026-07-11T02:40:50.924064,15.27020196,.0009163,97.5082,256.0653,18.8837,341.2740,0,U,57187,999,16796,.21123E-3,.5531E-4,0
HORS 1,2023-091Y,2026-07-11T03:51:52.129728,15.27137879,.0008629,97.5060,255.8743,18.9889,341.1670,0,U,57188,999,16797,.21359E-3,.5613E-4,0
VIZARD-METEO (RS38S),2023-091Z,2026-07-11T04:19:31.159200,15.36792411,.0006022,97.5086,262.1570,356.1622,3.9575,0,U,57189,999,16837,.28926E-3,.10324E-3,0
SITRO-AIS 6 (CHIRKIN),2023-091AC,2026-07-11T04:14:44.343168,15.26390562,.0011593,97.5061,255.3014,30.3675,329.8232,0,U,57192,999,16794,.24691E-3,.636E-4,0
SITRO-AIS 8 (ANOKHIN),2023-091AD,2026-07-11T04:21:35.186400,15.32788770,.0009948,97.5049,258.0043,22.4691,337.6984,0,U,57193,999,16812,.28238E-3,.8876E-4,0
SITRO-AIS 7 (FARTUSHNIY),2023-091AE,2026-07-11T04:26:27.504384,15.26066449,.0011556,97.5057,255.1219,31.4473,328.7454,0,U,57194,999,16793,.24516E-3,.6253E-4,0
AVION KALUGA 650,2023-091AF,2026-07-11T04:23:38.657184,15.20606208,.0010849,97.5081,251.6640,35.7484,324.4475,0,U,57195,999,16767,.16567E-3,.3566E-4,0
